0 SKIPPER
1 23752U 95072B   13282.45416613  .00000007  00000-0  21651-4 0  5327
2 23752 098.7277 223.6825 0005208 201.8087 291.6132 14.25640615925240
0 SKIPPER
1 23752U 95072B   13283.70331813  .00000007  00000-0  21501-4 0  5339
2 23752 098.7279 224.9259 0005281 198.0799 222.7427 14.25640609925420
0 SKIPPER
1 23752U 95072B   13286.45459774 -.00000010  00000-0  14682-4 0  5350
2 23752 098.7286 227.6646 0005450 190.0664 303.1709 14.25641076925818
0 SKIPPER
1 23752U 95072B   13287.77291005  .00000025  00000-0  29438-4 0  5368
2 23752 098.7290 228.9768 0005520 186.3325 229.0597 14.25641097926008
0 SKIPPER
1 23752U 95072B   13288.82524285  .00000031  00000-0  31761-4 0  5374
2 23752 098.7293 230.0243 0005578 183.4226 229.8083 14.25641108926151
0 SKIPPER
1 23752U 95072B   13290.45505256  .00000018  00000-0  26512-4 0  5387
2 23752 098.7296 231.6469 0005677 178.9284 314.2524 14.25641509926383
0 SKIPPER
1 23752U 95072B   13291.77348874  .00000044  00000-0  37246-4 0  5390
2 23752 098.7298 232.9595 0005749 175.2641 240.7096 14.25641468926578
0 SKIPPER
1 23752U 95072B   13292.82571337  .00000057  00000-0  42755-4 0  5406
2 23752 098.7299 234.0072 0005804 172.3940 240.8654 14.25641571926727
0 SKIPPER
1 23752U 95072B   13294.10252328  .00000040  00000-0  35815-4 0  5417
2 23752 098.7300 235.2786 0005871 168.9988 313.5345 14.25642022926909
0 SKIPPER
1 23752U 95072B   13295.43907072  .00000046  00000-0  38244-4 0  5423
2 23752 098.7301 236.6095 0005938 165.4650 332.7624 14.25642216927099
